{
    "links": {
        "self": "http://www.neowsapp.com/rest/v1/neo/3745027?api_key=iIulBulltgU6a56xZRHN4H3l9WmuAYTsLGpBGhQ2"
    },
    "id": "3745027",
    "neo_reference_id": "3745027",
    "name": "(2016 EA1)",
    "designation": "2016 EA1",
    "nasa_jpl_url": "http://ssd.jpl.nasa.gov/sbdb.cgi?sstr=3745027",
    "absolute_magnitude_h": 24.1,
    "estimated_diameter": {
        "kilometers": {
            "estimated_diameter_min": 0.040230458,
            "estimated_diameter_max": 0.0899580388
        },
        "meters": {
            "estimated_diameter_min": 40.2304579834,
            "estimated_diameter_max": 89.9580388169
        },
        "miles": {
            "estimated_diameter_min": 0.0249980399,
            "estimated_diameter_max": 0.0558973165
        },
        "feet": {
            "estimated_diameter_min": 131.9896957704,
            "estimated_diameter_max": 295.1379320721
        }
    },
    "is_potentially_hazardous_asteroid": false,
    "close_approach_data": [
        {
            "close_approach_date": "1994-03-22",
            "close_approach_date_full": "1994-Mar-22 22:51",
            "epoch_date_close_approach": 764376660000,
            "relative_velocity": {
                "kilometers_per_second": "16.2877209948",
                "kilometers_per_hour": "58635.7955812292",
                "miles_per_hour": "36434.0030932366"
            },
            "miss_distance": {
                "astronomical": "0.4404735303",
                "lunar": "171.3442032867",
                "kilometers": "65893901.924260461",
                "miles": "40944572.0307019218"
            },
            "orbiting_body": "Earth"
        },
        {
            "close_approach_date": "2005-03-09",
            "close_approach_date_full": "2005-Mar-09 15:47",
            "epoch_date_close_approach": 1110383220000,
            "relative_velocity": {
                "kilometers_per_second": "10.9478138082",
                "kilometers_per_hour": "39412.1297093472",
                "miles_per_hour": "24489.1647074552"
            },
            "miss_distance": {
                "astronomical": "0.2516057201",
                "lunar": "97.8746251189",
                "kilometers": "37639679.806776187",
                "miles": "23388212.5061059006"
            },
            "orbiting_body": "Earth"
        },
        {
            "close_approach_date": "2016-02-24",
            "close_approach_date_full": "2016-Feb-24 07:59",
            "epoch_date_close_approach": 1456300740000,
            "relative_velocity": {
                "kilometers_per_second": "7.1962057813",
                "kilometers_per_hour": "25906.3408127452",
                "miles_per_hour": "16097.1927122305"
            },
            "miss_distance": {
                "astronomical": "0.0999568249",
                "lunar": "38.8832048861",
                "kilometers": "14953328.097002963",
                "miles": "9291567.2237803694"
            },
            "orbiting_body": "Earth"
        }
    ],
    "orbital_data": {
        "orbit_id": "7",
        "orbit_determination_date": "2017-04-06 08:27:56",
        "first_observation_date": "2016-03-01",
        "last_observation_date": "2016-03-30",
        "data_arc_in_days": 29,
        "observations_used": 27,
        "orbit_uncertainty": "7",
        "minimum_orbit_intersection": ".0686743",
        "jupiter_tisserand_invariant": "4.121",
        "epoch_osculation": "2459000.5",
        "eccentricity": ".3753638594090408",
        "semi_major_axis": "1.689793894463765",
        "inclination": "9.451174245235501",
        "ascending_node_longitude": "149.5453314189955",
        "orbital_period": "802.3226112344405",
        "perihelion_distance": "1.055506336632013",
        "perihelion_argument": "353.1892650732561",
        "aphelion_distance": "2.324081452295517",
        "perihelion_time": "2459039.831707495709",
        "mean_anomaly": "342.3519685221512",
        "mean_motion": ".4486973132243025",
        "equinox": "J2000",
        "orbit_class": {
            "orbit_class_type": "AMO",
            "orbit_class_description": "Near-Earth asteroid orbits similar to that of 1221 Amor",
            "orbit_class_range": "1.017 AU < q (perihelion) < 1.3 AU"
        }
    },
    "is_sentry_object": false
}